NORAD_CAT_ID,OBJECT_NAME,OBJECT_TYPE,EPOCH,MEAN_MOTION,ECCENTRICITY,INCLINATION,RA_OF_ASC_NODE,ARG_OF_PERICENTER,MEAN_ANOMALY,BSTAR,MEAN_MOTION_DOT,MEAN_MOTION_DDOT,TLE_LINE0,TLE_LINE1,TLE_LINE2,SEMIMAJOR_AXIS,PERIOD,APOGEE,PERIGEE,DECAYED
54008.0,STARLINK-5145,PAYLOAD,2023-09-02 20:16:29,15.08857426,0.000127,53.219,8.616,78.0001,282.1133,0.00054447,8.392e-05,0.0,0 STARLINK-5145,1 54008U 22125AW  23245.84478333  .00008392  00000-0  54447-3 0  9994,2 54008  53.2190   8.6160 0001270  78.0001 282.1133 15.08857426 50894,6917.827,95.436,540.571,538.814,0.0
54008.0,STARLINK-5145,PAYLOAD,2023-09-03 01:02:38,15.08858249,0.0001161,53.2186,7.7247,72.6999,287.412,0.00044293,6.772e-05,0.0,0 STARLINK-5145,1 54008U 22125AW  23246.04350083  .00006772  00000-0  44293-3 0  9996,2 54008  53.2186   7.7247 0001161  72.6999 287.4120 15.08858249 50977,6917.825,95.436,540.493,538.886,0.0
54008.0,STARLINK-5145,PAYLOAD,2023-09-03 12:10:20,15.08841449,0.0001366,53.2194,5.6428,77.046,283.0685,0.00014564,2.031e-05,0.0,0 STARLINK-5145,1 54008U 22125AW  23246.50718503  .00002031  00000-0  14564-3 0  9994,2 54008  53.2194   5.6428 0001366  77.0460 283.0685 15.08841449 51044,6917.876,95.437,540.686,538.796,0.0
54008.0,STARLINK-5145,PAYLOAD,2023-09-04 00:53:25,15.08832884,0.000135,53.2191,3.2659,95.1933,264.9214,-0.00014115,-2.533e-05,0.0,0 STARLINK-5145,1 54008U 22125AW  23247.03710619 -.00002533  00000-0 -14115-3 0  9994,2 54008  53.2191   3.2659 0001350  95.1933 264.9214 15.08832884 51128,6917.902,95.438,540.701,538.833,0.0
54008.0,STARLINK-5145,PAYLOAD,2023-09-04 10:25:45,15.08826796,0.0001425,53.2186,1.4792,80.9636,279.1517,-0.00025124,-4.283e-05,0.0,0 STARLINK-5145,1 54008U 22125AW  23247.43455115 -.00004283  00000-0 -25124-3 0  9991,2 54008  53.2186   1.4792 0001425  80.9636 279.1517 15.08826796 51135,6917.921,95.438,540.772,538.8,0.0
54008.0,STARLINK-5145,PAYLOAD,2023-09-05 00:44:13,15.08833957,0.0001319,53.2182,358.8042,86.9148,273.1995,4.5063e-06,-2.16e-06,0.0,0 STARLINK-5145,1 54008U 22125AW  23248.03071212 -.00000216  00000-0  45063-5 0  9997,2 54008  53.2182 358.8042 0001319  86.9148 273.1995 15.08833957 51225,6917.899,95.438,540.676,538.851,0.0
54008.0,STARLINK-5145,PAYLOAD,2023-09-06 00:35:00,15.08842648,0.0001284,53.2175,354.3452,88.98,271.1339,0.00038716,5.88e-05,0.0,0 STARLINK-5145,1 54008U 22125AW  23249.02431460  .00005880  00000-0  38716-3 0  9998,2 54008  53.2175 354.3452 0001284  88.9800 271.1339 15.08842648 51420,6917.872,95.437,540.626,538.849,0.0
54008.0,STARLINK-5145,PAYLOAD,2023-09-06 10:07:19,15.08843712,0.000126,53.2175,352.5609,89.8477,270.2659,0.00034673,5.235e-05,0.0,0 STARLINK-5145,1 54008U 22125AW  23249.42175503  .00005235  00000-0  34673-3 0  9997,2 54008  53.2175 352.5609 0001260  89.8477 270.2659 15.08843712 51437,6917.869,95.437,540.606,538.862,0.0
54008.0,STARLINK-5145,PAYLOAD,2023-09-06 16:28:51,15.08854754,0.000134,53.2176,351.3721,87.4515,272.663,0.00045901,7.028e-05,0.0,0 STARLINK-5145,1 54008U 22125AW  23249.68671051  .00007028  00000-0  45901-3 0  9992,2 54008  53.2176 351.3721 0001340  87.4515 272.6630 15.08854754 51473,6917.835,95.437,540.627,538.773,0.0
54008.0,STARLINK-5145,PAYLOAD,2023-09-07 08:22:43,15.08836284,0.0001429,53.2164,348.3975,92.0364,268.0791,-1.2472e-05,-4.86e-06,0.0,0 STARLINK-5145,1 54008U 22125AW  23250.34911581 -.00000486  00000-0 -12472-4 0  9993,2 54008  53.2164 348.3975 0001429  92.0364 268.0791 15.08836284 51621,6917.892,95.438,540.745,538.768,0.0
54008.0,STARLINK-5145,PAYLOAD,2023-09-07 09:58:06,15.08839236,0.0001242,53.2181,348.1009,98.0164,262.097,4.9787e-05,5.05e-06,0.0,0 STARLINK-5145,1 54008U 22125AW  23250.41535483  .00000505  00000-0  49787-4 0  9993,2 54008  53.2181 348.1009 0001242  98.0164 262.0970 15.08839236 51581,6917.883,95.438,540.607,538.889,0.0
54008.0,STARLINK-5145,PAYLOAD,2023-09-07 16:19:38,15.08847411,0.0001304,53.2178,346.9105,97.5517,262.5623,9.1472e-05,1.168e-05,0.0,0 STARLINK-5145,1 54008U 22125AW  23250.68030902  .00001168  00000-0  91472-4 0  9992,2 54008  53.2178 346.9105 0001304  97.5517 262.5623 15.08847411 51679,6917.858,95.437,540.625,538.821,0.0
54008.0,STARLINK-5145,PAYLOAD,2023-09-08 09:48:53,15.08839455,0.0001496,53.2171,343.6371,113.9442,246.1707,2.1284e-05,5.1e-07,0.0,0 STARLINK-5145,1 54008U 22125AW  23251.40895465  .00000051  00000-0  21284-4 0  9990,2 54008  53.2171 343.6371 0001496 113.9442 246.1707 15.08839455 51785,6917.882,95.438,540.782,538.712,0.0
54008.0,STARLINK-5145,PAYLOAD,2023-09-08 12:59:39,15.08843113,0.0001198,53.2184,343.0414,100.4893,259.6234,-4.2841e-05,-9.7e-06,0.0,0 STARLINK-5145,1 54008U 22125AW  23251.54143231 -.00000970  00000-0 -42841-4 0  9996,2 54008  53.2184 343.0414 0001198 100.4893 259.6234 15.08843113 51758,6917.871,95.437,540.565,538.907,0.0
54008.0,STARLINK-5145,PAYLOAD,2023-09-08 17:45:48,15.08849624,0.0001237,53.2186,342.1528,93.2575,266.8559,0.00011094,1.479e-05,0.0,0 STARLINK-5145,1 54008U 22125AW  23251.74014929  .00001479  00000-0  11094-3 0  9997,2 54008  53.2186 342.1528 0001237  93.2575 266.8559 15.08849624 51782,6917.851,95.437,540.572,538.86,0.0
54008.0,STARLINK-5145,PAYLOAD,2023-09-09 09:39:40,15.08839883,0.0001639,53.218,339.1794,115.1799,244.9363,0.00014665,2.047e-05,0.0,0 STARLINK-5145,1 54008U 22125AW  23252.40255647  .00002047  00000-0  14665-3 0  9994,2 54008  53.2180 339.1794 0001639 115.1799 244.9363 15.08839883 51938,6917.881,95.438,540.88,538.612,0.0
54008.0,STARLINK-5145,PAYLOAD,2023-09-09 12:50:26,15.08844332,0.0001301,53.2178,338.5855,93.853,266.2611,0.00021723,3.171e-05,0.0,0 STARLINK-5145,1 54008U 22125AW  23252.53503391  .00003171  00000-0  21723-3 0  9992,2 54008  53.2178 338.5855 0001301  93.8530 266.2611 15.08844332 51902,6917.867,95.437,540.632,538.832,0.0
54008.0,STARLINK-5145,PAYLOAD,2023-09-09 16:01:12,15.08850201,0.0001354,53.2185,337.9908,90.0089,270.1058,0.00022623,3.315e-05,0.0,0 STARLINK-5145,1 54008U 22125AW  23252.66751087  .00003315  00000-0  22623-3 0  9993,2 54008  53.2185 337.9908 0001354  90.0089 270.1058 15.08850201 51976,6917.849,95.437,540.651,538.778,0.0
54008.0,STARLINK-5145,PAYLOAD,2023-09-09 22:22:45,15.0884008,0.0001603,53.2188,336.7989,84.4518,275.6657,0.00013783,1.906e-05,0.0,0 STARLINK-5145,1 54008U 22125AW  23252.93247674  .00001906  00000-0  13783-3 0  9996,2 54008  53.2188 336.7989 0001603  84.4518 275.6657 15.08840080 52011,6917.88,95.438,540.854,538.636,0.0
54008.0,STARLINK-5145,PAYLOAD,2023-09-10 11:05:50,15.08845046,0.0001391,53.2183,334.4217,94.1191,265.996,0.00010984,1.461e-05,0.0,0 STARLINK-5145,1 54008U 22125AW  23253.46239310  .00001461  00000-0  10984-3 0  9999,2 54008  53.2183 334.4217 0001391  94.1191 265.9960 15.08845046 52043,6917.865,95.437,540.692,538.768,0.0
54008.0,STARLINK-5145,PAYLOAD,2023-09-10 14:16:36,15.08850929,0.0001356,53.2185,333.8281,93.8807,266.234,0.00022429,3.284e-05,0.0,0 STARLINK-5145,1 54008U 22125AW  23253.59487086  .00003284  00000-0  22429-3 0  9990,2 54008  53.2185 333.8281 0001356  93.8807 266.2340 15.08850929 52110,6917.847,95.437,540.65,538.774,0.0
54008.0,STARLINK-5145,PAYLOAD,2023-09-10 23:48:55,15.08842254,0.0001386,53.2183,332.0447,85.7463,274.3688,5.6814e-05,6.16e-06,0.0,0 STARLINK-5145,1 54008U 22125AW  23253.99231437  .00000616  00000-0  56814-4 0  9993,2 54008  53.2183 332.0447 0001386  85.7463 274.3688 15.08842254 52177,6917.873,95.437,540.697,538.78,0.0
54008.0,STARLINK-5145,PAYLOAD,2023-09-11 10:56:38,15.08833274,0.0001494,53.2182,329.9633,93.888,266.2282,-5.3181e-05,-1.134e-05,0.0,0 STARLINK-5145,1 54008U 22125AW  23254.45600075 -.00001134  00000-0 -53181-4 0  9995,2 54008  53.2182 329.9633 0001494  93.8880 266.2282 15.08833274 52241,6917.901,95.438,540.799,538.732,0.0
54008.0,STARLINK-5145,PAYLOAD,2023-09-11 12:32:01,15.08834273,0.0001416,53.218,329.6658,90.4556,269.6598,-3.5134e-05,-8.47e-06,0.0,0 STARLINK-5145,1 54008U 22125AW  23254.52224020 -.00000847  00000-0 -35134-4 0  9993,2 54008  53.2180 329.6658 0001416  90.4556 269.6598 15.08834273 52203,6917.898,95.438,540.742,538.783,0.0
54008.0,STARLINK-5145,PAYLOAD,2023-09-11 15:42:47,15.08840718,0.0001277,53.2177,329.0697,85.5558,274.558,4.0731e-05,3.6e-06,0.0,0 STARLINK-5145,1 54008U 22125AW  23254.65471636  .00000360  00000-0  40731-4 0  9991,2 54008  53.2177 329.0697 0001277  85.5558 274.5580 15.08840718 52272,6917.878,95.438,540.627,538.86,0.0
54008.0,STARLINK-5145,PAYLOAD,2023-09-12 12:22:48,15.0884811,0.0001386,53.2171,325.2041,90.4169,269.6982,0.00027658,4.118e-05,0.0,0 STARLINK-5145,1 54008U 22125AW  23255.51583622  .00004118  00000-0  27658-3 0  9993,2 54008  53.2171 325.2041 0001386  90.4169 269.6982 15.08848110 52355,6917.856,95.437,540.679,538.762,0.0
54008.0,STARLINK-5145,PAYLOAD,2023-09-12 17:08:57,15.0885641,0.0001309,53.217,324.3118,86.3268,273.7874,0.00044977,6.881e-05,0.0,0 STARLINK-5145,1 54008U 22125AW  23255.71455294  .00006881  00000-0  44977-3 0  9990,2 54008  53.2170 324.3118 0001309  86.3268 273.7874 15.08856410 52435,6917.83,95.437,540.601,538.79,0.0
54008.0,STARLINK-5145,PAYLOAD,2023-09-12 21:55:06,15.08838487,5.31e-05,53.2174,323.4219,100.6631,259.442,4.1834e-05,3.78e-06,0.0,0 STARLINK-5145,1 54008U 22125AW  23255.91327535  .00000378  00000-0  41834-4 0  9993,2 54008  53.2174 323.4219 0000531 100.6631 259.4420 15.08838487 52466,6917.885,95.438,540.117,539.383,0.0
54008.0,STARLINK-5145,PAYLOAD,2023-09-13 10:38:11,15.08863645,0.0001366,53.2165,321.041,88.5167,271.5981,0.00073168,0.00011383,0.0,0 STARLINK-5145,1 54008U 22125AW  23256.44319139  .00011383  00000-0  73168-3 0  9995,2 54008  53.2165 321.0410 0001366  88.5167 271.5981 15.08863645 52548,6917.808,95.436,540.618,538.728,0.0
54008.0,STARLINK-5145,PAYLOAD,2023-09-13 12:13:34,15.08866721,0.0001381,53.2169,320.7437,89.0947,271.0204,0.00095052,0.00014883,0.0,0 STARLINK-5145,1 54008U 22125AW  23256.50943040  .00014883  00000-0  95052-3 0  9990,2 54008  53.2169 320.7437 0001381  89.0947 271.0204 15.08866721 52503,6917.799,95.436,540.619,538.708,0.0
